#dP2023  2 19  0  0  0.00000000      96 __u+U ITR00 FIT  IAC
## 2250      0.00000000   900.00000000 59994 0.0000000000000
+  120   C06C07C08C09C10C11C12C13C14C16C19C20C21C22C23C24C25
+        C26C27C28C29C30C32C33C34C35C36C37C38C39C40C41C42C43
+        C44C45C46E01E02E03E04E05E07E08E09E10E11E12E13E14E15
+        E18E19E21E24E25E26E27E30E31E33E34E36G01G02G03G04G05
+        G06G07G08G09G10G11G12G13G14G15G16G17G18G19G20G21G22
+        G23G24G25G26G27G28G29G30G31G32J02J03J04R01R02R03R04
+        R05R07R08R09R11R12R13R14R15R16R17R18R19R20R21R22R24
+        R25  0  0  0  0  0  0  0  0  0  0  0  0  0  0  0  0
++         9  9  8  9  8  9  0  8  8  9  6  7  7  6  6  7  8
++         5  6  7  6  7  7  7  6  6  6  8  9 10 10  9  7  7
++         5  7  5  6  5  7  6  6  6  6  6  7  7  7  6  4  6
++         7  5  5  7  7  5  5  5  6  6  6  7  6  5  6  8  5
++         6  5  7  6  6  5  5  5  5  6  6  6  5  5  6  6  6
++         5  6  5  6  4  6  5  7  6  6  8  8  7  6  6  7  7
++         8  7  6  6  5  5  5  7  6  6  6  6  6  6  7  7  9
++         6  0  0  0  0  0  0  0  0  0  0  0  0  0  0  0  0
%c M  cc GPS ccc cccc cccc cccc cccc ccccc ccccc ccccc ccccc
%c cc cc ccc ccc cccc cccc cccc cccc ccccc ccccc ccccc ccccc
%f  0.0000000  0.000000000  0.00000000000  0.000000000000000
%f  0.0000000  0.000000000  0.00000000000  0.000000000000000
%i    0    0    0    0      0      0      0      0         0
%i    0    0    0    0      0      0      0      0         0
/* INFORMATION & ANALYSIS CENTER (IAC)      ULTRA-RAPID DATA
/* S/V CLOCKS ARE ALIGNED TO GNSS TIME                      
/* G:C1WC2W R:C1PC2P E:C1XC5X C:C2IC6I J:C1CC2S             
/* PCV:IGS20_2247 OL/AL:FES2004  NONE     YN ORB:CoN CLK:CoN
*  2023 02 19 12 45  0.00000000
PC06  -9532.320622  22935.705834 -34074.501927   -191.615847
PC07 -16443.564483  37299.948527  10468.299664     91.273080
PC08   -125.867732  36680.111848  20962.112445    525.115116
PC09    231.249969  24944.133766 -33537.628509    738.583959
PC10 -10079.340978  37375.407684  16389.765149      7.923622
PC11  -1051.576840 -15413.885114 -23169.857325   -111.827563
PC12  18608.203161 -10480.036954 -17923.055235 999999.999999
PC13   3695.290351  38975.155918  16162.376025    211.499834
PC14   4734.699483 -24086.560707  13345.804860    498.326050
PC16 -11353.431693  21742.794728 -34106.911815    158.450254
PC19   3429.041846  19398.723921 -19729.283697   -894.587069
PC20 -10954.186574  24831.871848  -6415.254794    716.505991
PC21  19855.561602 -15663.771000 -11798.921616   -910.387388
PC22  16570.473691   2494.746471 -22314.577989   -624.898938
PC23 -19021.436199 -14175.690815 -14695.714839   -879.073324
PC24   3468.153303 -21339.253657  17609.586037   -391.015194
PC25 -12477.744278 -24924.385562   1060.689099     74.650879
PC26  14919.748129  -6603.669539  22621.237683    -80.988284
PC27 -24757.944737   6197.107949  11288.729767     99.115312
PC28 -26903.916911  -5358.925736  -5124.929537     72.252926
PC29  13114.045570  14321.265081  20034.313552     83.189578
PC30  -8973.931127  14937.813642  21795.755718      1.105821
PC32 -19758.335041  15708.368660  11910.048930   -618.036953
PC33  -3494.518041 -19478.980097  19689.760124   -872.482758
PC34   7524.540519 -15256.250034 -22127.508194    109.590324
PC35  26685.299168   5153.520196   6224.221137    677.847809
PC36  11463.851691  25389.234035  -1723.592458   -614.841859
PC37 -15737.049778   4802.688921 -22533.027702   -817.664661
PC38  -6747.102370  32103.629493  26604.493702     59.840554
PC39 -18203.117075  19910.333329 -32424.036003     -1.874735
PC40 -23632.994313  33560.005377   9089.969226    -15.519605
PC41 -16308.294989  -3154.331629  22480.015332   -630.680148
PC42  11751.864801 -24780.888756   5260.368471   -828.287325
PC43 -12256.113392 -14684.116267 -20337.979328      7.951928
PC44  24580.402460  -7088.335012 -11116.863779     20.290476
PC45  18984.045219  13875.881127  15037.981934    -62.438737
PC46  -2001.954842  22380.329921 -16584.578299    -34.514726
PE01  14900.462061 -16274.198333  19717.799471   -600.414864
PE02 -14762.398164  16743.070794 -19461.425104     21.737306
PE03 -25088.746722  15177.302367  -4022.909704   -651.573486
PE04   9849.432515 -19942.774210  19537.323957    -61.683313
PE05 -25920.305077   1354.393791  14236.557983    -93.847296
PE07  11475.734047  13119.555658 -23918.047870    -24.098256
PE08 -10025.982473  19864.334321 -19516.088478    -38.635055
PE09 -11235.757172 -13095.671664  24053.516969   -841.665389
PE10 -10951.162714 -21087.862395 -17654.980846   -513.525002
PE11 -19768.263235 -20258.800572  -8699.957522    947.603521
PE12  -1162.061313 -18726.873570 -22898.395670   -428.133798
PE13  19192.418336  20408.734011   9544.228722     -0.377530
PE14 -18029.689552  13147.252278   7910.658482    146.628877
PE15    839.157557  18508.198184  23091.159076     -2.197500
PE18  19473.824403 -20400.688481 -16044.939283   -372.670329
PE19  26227.870538 -13634.036829   1487.332943  -3196.342876
PE21  16396.960059   4035.172634  24303.651846   -513.068241
PE24  -8205.049117 -24282.046272 -14801.148326  -1122.821026
PE25 -16352.502143  -4389.338667 -24280.265240   -599.716796
PE26  26052.630165   9714.021324 -10137.509995     22.983509
PE27   8720.423487  23718.773879  15421.560015   -516.093717
PE30  -4561.364795  29096.561368  -3089.589784  -1255.172803
PE31   4008.086859 -29219.362667   2446.285433   -516.462656
PE33  17851.568560  -5705.054526 -22899.814462   -451.566069
PE34 -17729.075065   5867.245071  22964.000921    -30.911326
PE36 -26093.045070 -10330.901819   9441.538865    -14.759418
PG01 -22167.234613 -14307.520207   4094.694851    210.820747
PG02  23420.211741  10181.952157  -6206.468952   -619.790688
PG03 -12967.190043  -9631.074505  20985.614462   -361.220128
PG04 -22089.638402  -2679.414825  14594.542087    -24.138476
PG05   6315.116080  22830.536241 -12061.016646   -116.510844
PG06  -5512.630642  14027.718492  21926.458029    574.115212
PG07 -21472.062800  -2933.323848 -15240.006768    238.092702
PG08 -12756.475569 -10424.095480 -20967.814623   -109.246159
PG09 -25128.238316   6981.411913   5084.920664   -215.331661
PG10  11169.717545 -20390.684591 -12372.565573    -25.365904
PG11   7415.998631  20402.898530  15336.647415   -108.459453
PG12  11683.505134  12291.977395  20186.420204   -342.226983
PG13   4395.335434  14453.440872 -22023.606705    478.583889
PG14 -13373.958046  17954.459063 -14185.594573    -23.418835
PG15  14329.556060   9501.871165 -20752.456876     14.814855
PG16  -2019.959363 -24141.395647 -10624.977723   -519.369952
PG17 -21419.065060  13451.127580   8704.747676    700.995581
PG18  19220.435941   -585.498726 -18381.492907   -147.166746
PG19 -13431.941893  15511.397043  16480.744230    279.784757
PG20   1297.832557  26634.587582   -704.407491    449.747713
PG21 -20881.141398 -16579.753180  -3688.932181    154.073733
PG22   9449.348328 -16660.362086  18764.842255    430.174854
PG23  14675.390897  -9629.008806 -19884.228415      6.833874
PG24  22150.486016  15060.065286   -866.433394    -80.263914
PG25  15180.557533   1256.392648  21441.982536    421.404616
PG26   4475.267308 -25731.342292   3561.330501    241.608739
PG27   -761.847165 -15707.191815 -21580.187050     98.703512
PG28   7235.043623 -13446.264719  21699.537764     18.484598
PG29  25240.065646  -2499.574224   7966.635553   -586.958916
PG30 -13434.255617   9082.384369 -20971.383445   -529.776434
PG31   4351.726486 -15508.417704  20871.349346   -209.662623
PG32  18581.389618 -15752.068652  10505.732539   -400.878732
PJ02 -22638.381511  29738.898821 -14895.869289     -0.950759
PJ03 -28541.547925  22642.383646  26280.025798      0.334109
PJ04 -30849.114522  28720.449620   9794.764851     94.245862
PR01   8783.422751 -19549.696621  13846.126151     23.327046
PR02  -6249.845481  -9075.711836  23048.479919    -23.251270
PR03 -17291.251785   5893.305711  17880.591859     72.780707
PR04 -18592.167287  17220.756326   3005.436184    176.403295
PR05  -9895.859878  19224.601412 -13540.562348    108.017010
PR07  17527.278977  -6530.909524 -17274.276713     50.231859
PR08  18406.534319 -17423.293414  -2667.105725    -69.524710
PR09  11461.664037  20846.135646   9115.925305    104.944489
PR11   7330.923167 -11182.954246  21729.400907     -6.731000
PR12  -2834.181213 -23823.505381   8653.160181     25.112517
PR13 -10644.977189 -21937.305952  -7502.778653    -32.189771
PR14 -12692.939191  -6205.658018 -21236.829094     24.358151
PR15  -7019.014949  12218.145978 -21251.301858     90.956914
PR16   2904.228918  23679.582048  -8988.403687     11.462734
PR17 -24848.736122  -4580.203930   3387.582235    606.220627
PR18 -17742.514062   3759.904843  17982.280397     67.589602
PR19  -3130.478423   9864.883016  23316.511334   -222.466296
PR20  17420.879213  11726.273055  14455.241053    -87.992244
PR21  24695.967827   3942.341363  -5069.681885   -374.525338
PR22  17260.025565  -3878.045608 -18340.047349     71.631510
PR24 -18245.469878 -11313.446963 -13751.796753    147.959923
PR25  24642.216416   5883.072748  -3030.028491     55.528173
EOF
